{"type":"FeatureCollection","features":[{"type":"Feature","geometry":{"type":"MultiPolygon","coordinates":[[[[111.694595,-6.752857],[111.832825,-6.799014],[111.939568,-6.764695],[111.972176,-6.765804],[112.027229,-6.859045],[112.060112,-6.890543],[112.16993,-6.89966],[112.23793,-6.871494],[112.411819,-6.865529],[112.5198,-6.905662],[112.544864,-6.848775],[112.602792,-6.89387],[112.608869,-6.982774],[112.652966,-7.041649],[112.625006,-7.126014],[112.66918,-7.166654],[112.674713,-7.225679],[112.727264,-7.199742],[112.782669,-7.214118],[112.836922,-7.30876],[112.826752,-7.347414],[112.830528,-7.46781],[112.816696,-7.488018],[112.857704,-7.548725],[112.843674,-7.586721],[112.901512,-7.62622],[112.994942,-7.657773],[113.048615,-7.659442],[113.110321,-7.72505],[113.154587,-7.746615],[113.212761,-7.73906],[113.280533,-7.786507],[113.337135,-7.77614],[113.481895,-7.698964],[113.575294,-7.711989],[113.667999,-7.736984],[113.706665,-7.709392],[113.784576,-7.733948],[113.838509,-7.684821],[113.931564,-7.699339],[114.0299,-7.606591],[114.065537,-7.637639],[114.095688,-7.699542],[114.137779,-7.71711],[114.208633,-7.719072],[114.239769,-7.700929],[114.286819,-7.74787],[114.368515,-7.751497],[114.449234,-7.804945],[114.460304,-7.88781],[114.41713,-7.920804],[114.42569,-8.064825],[114.395546,-8.121264],[114.337181,-8.422754],[114.372826,-8.53333],[114.443161,-8.637075],[114.467758,-8.61793],[114.513489,-8.648381],[114.569321,-8.661139],[114.602242,-8.715033],[114.591324,-8.750443],[114.530891,-8.780732],[114.416534,-8.748014],[114.349121,-8.744769],[114.375259,-8.698574],[114.361153,-8.65963],[114.317375,-8.624228],[114.225525,-8.602414],[114.216881,-8.643929],[114.090469,-8.615832],[114.045151,-8.639547],[114.021385,-8.595541],[113.970848,-8.609504],[113.942947,-8.56012],[113.905838,-8.579295],[113.8125,-8.546223],[113.79007,-8.488746],[113.73201,-8.526714],[113.646294,-8.494339],[113.61882,-8.442991],[113.524757,-8.430819],[113.425812,-8.380055],[113.387894,-8.398775],[113.364845,-8.353276],[113.284279,-8.295891],[113.243156,-8.284298],[113.072037,-8.284934],[112.972435,-8.326396],[112.937477,-8.383437],[112.875587,-8.409164],[112.781456,-8.387782],[112.74437,-8.419105],[112.670242,-8.446231],[112.552414,-8.401976],[112.44194,-8.398211],[112.37439,-8.376492],[112.329979,-8.334126],[112.265106,-8.349245],[112.142982,-8.318054],[112.031502,-8.319978],[111.969475,-8.282909],[111.897675,-8.301271],[111.776794,-8.257344],[111.769699,-8.290105],[111.710297,-8.294887],[111.710007,-8.325211],[111.672142,-8.373858],[111.625053,-8.325221],[111.513535,-8.335917],[111.41066,-8.279475],[111.254616,-8.248837],[111.188499,-8.278602],[111.118698,-8.254065],[111.023735,-8.252783],[110.904457,-8.210409],[110.911171,-8.121149],[110.956131,-8.063713],[111.031685,-8.082599],[111.072105,-8.050748],[111.108658,-8.065952],[111.134033,-8.020032],[111.140442,-7.938492],[111.181503,-7.916514],[111.231346,-7.948041],[111.269707,-7.930492],[111.314003,-7.85079],[111.281219,-7.782755],[111.283073,-7.744789],[111.230736,-7.747669],[111.180164,-7.709611],[111.189209,-7.603958],[111.151654,-7.563807],[111.112659,-7.415796],[111.132803,-7.386832],[111.133153,-7.30824],[111.146592,-7.262771],[111.241771,-7.24923],[111.219641,-7.295056],[111.346387,-7.352231],[111.438232,-7.353508],[111.448722,-7.280662],[111.544593,-7.209885],[111.580716,-7.201196],[111.62486,-7.065532],[111.612236,-6.971057],[111.566604,-6.951681],[111.609039,-6.903624],[111.615326,-6.836943],[111.648499,-6.828923],[111.659874,-6.780993],[111.694595,-6.752857]]],[[[113.638163,-6.887474],[113.797623,-6.884495],[113.912071,-6.864436],[113.992722,-6.884586],[114.086349,-6.927759],[114.121918,-6.980549],[114.035805,-7.008666],[113.985703,-7.011945],[113.941284,-7.057282],[113.880783,-7.07095],[113.883873,-7.135548],[113.678551,-7.110577],[113.604645,-7.127305],[113.573105,-7.163429],[113.551178,-7.2346],[113.328033,-7.214845],[113.092392,-7.229101],[112.962181,-7.200501],[112.866043,-7.164714],[112.801178,-7.157979],[112.721176,-7.174918],[112.690369,-7.151152],[112.708206,-7.102842],[112.673004,-7.075121],[112.683548,-7.031513],[112.725105,-7.040094],[112.787674,-6.985271],[112.845161,-6.898797],[113.042206,-6.880765],[113.118645,-6.894146],[113.42231,-6.88627],[113.499718,-6.897233],[113.638163,-6.887474]]],[[[115.499336,-6.946886],[115.4478,-6.919424],[115.38356,-6.911211],[115.390144,-6.98852],[115.320747,-6.993716],[115.193825,-6.931066],[115.233414,-6.885417],[115.251526,-6.826602],[115.394707,-6.834252],[115.439651,-6.846564],[115.553787,-6.90412],[115.534569,-6.96106],[115.499336,-6.946886]]],[[[112.67501,-5.859471],[112.564216,-5.833381],[112.578552,-5.779873],[112.671714,-5.72369],[112.71614,-5.742655],[112.731986,-5.793182],[112.722518,-5.834838],[112.67501,-5.859471]]],[[[114.28257,-7.073864],[114.325409,-7.053657],[114.362137,-7.081872],[114.404289,-7.172804],[114.383644,-7.186969],[114.3144,-7.167445],[114.267868,-7.098571],[114.28257,-7.073864]]],[[[115.899406,-7.107687],[115.891769,-7.186985],[115.832756,-7.205947],[115.736443,-7.153445],[115.778282,-7.109709],[115.804092,-7.15064],[115.843468,-7.16076],[115.899406,-7.107687]]],[[[113.271072,-8.464405],[113.306946,-8.450875],[113.400581,-8.458902],[113.399284,-8.49789],[113.30629,-8.509363],[113.271072,-8.464405]]],[[[114.48246,-7.141308],[114.538559,-7.120292],[114.604576,-7.134747],[114.60331,-7.171029],[114.48246,-7.141308]]]]},"properties":{"ID":8,"kode":35,"Propinsi":"JAWA TIMUR","SUMBER":"Peta Dasar BAKOSURTANAL Skala 1 : 250.000"}}]}