<?xml version="1.0" encoding="UTF-8" standalone="yes"?>
<kml xmlns="http://www.opengis.net/kml/2.2" xmlns:ns2="http://www.google.com/kml/ext/2.2" xmlns:ns3="http://www.w3.org/2005/Atom" xmlns:ns4="urn:oasis:names:tc:ciq:xsdschema:xAL:2.0">
    <Document>
        <LookAt>
            <longitude>113.90709694493081</longitude>
            <latitude>-1.406108920288247</latitude>
            <altitude>547005.1837130365</altitude>
            <heading>0.0</heading>
            <tilt>0.0</tilt>
            <range>442008.87977568945</range>
            <altitudeMode>clampToGround</altitudeMode>
        </LookAt>
        <Folder>
            <name>sitr:layer_group_120</name>
            <LookAt>
                <longitude>113.66868590237223</longitude>
                <latitude>-6.919845776357704</latitude>
                <altitude>956363.9283091121</altitude>
                <heading>0.0</heading>
                <tilt>0.0</tilt>
                <range>772792.21695923</range>
                <altitudeMode>clampToGround</altitudeMode>
            </LookAt>
        </Folder>
    </Document>
</kml>
